ONEWEB-0548             
1 56050U 23043E   25253.38013053  .00000113  00000+0  26160-3 0  9990
2 56050  87.8978 284.5499 0002134  80.7738 279.3634 13.16595782122140
ONEWEB-0549             
1 56051U 23043F   25253.39118659  .00000023  00000+0  23235-4 0  9991
2 56051  87.9216 299.8245 0001700 100.7628 259.3697 13.21826448121265
ONEWEB-0550             
1 56052U 23043G   25252.62159068  .00000050  00000+0  89327-4 0  9990
2 56052  87.9218 299.9724 0002059  92.7604 267.3765 13.21824349121165
ONEWEB-0551             
1 56053U 23043H   25252.73186068 -.00000151  00000+0 -43464-3 0  9998
2 56053  87.9039 315.1961 0001650  97.5817 262.5501 13.15549459119527
ONEWEB-0552             
1 56054U 23043J   25252.84238544  .00000062  00000+0  11978-3 0  9992
2 56054  87.9215 299.9368 0001673  90.5159 269.6167 13.21826432121199
ONEWEB-0553             
1 56055U 23043K   25253.36113360  .00000043  00000+0  79554-4 0  9993
2 56055  87.8987 284.5469 0002296  96.3806 263.7586 13.16594278122153
ONEWEB-0554             
1 56056U 23043L   25253.34846423  .00000001  00000+0 -30677-4 0  9993
2 56056  87.8979 284.5738 0002085  87.0201 273.1168 13.16593613122137
ONEWEB-0555             
1 56057U 23043M   25252.62648440  .00000032  00000+0  49949-4 0  9998
2 56057  87.8989 284.6879 0002427  99.4118 260.7287 13.16595758122046
ONEWEB-0557             
1 56058U 23043N   25253.09672225  .00000053  00000+0  10493-3 0  9993
2 56058  87.8979 284.6125 0003114  81.4875 278.6609 13.16593778122108
ONEWEB-0558             
1 56059U 23043P   25253.06315323  .00000069  00000+0  13457-3 0  9994
2 56059  87.9213 299.8880 0001524 101.4038 258.7268 13.21824838121237
ONEWEB-0559             
1 56060U 23043Q   25252.67364380 -.00000025  00000+0 -91979-4 0  9999
2 56060  87.9214 299.9581 0001570  88.0212 272.1102 13.21826492121194
ONEWEB-0566             
1 56061U 23043R   25253.42429613 -.00000050  00000+0 -15157-3 0  9996
2 56061  87.9214 299.8063 0001598  95.8920 264.2396 13.21826864121270
ONEWEB-0568             
1 56062U 23043S   25253.34213282 -.00000040  00000+0 -13768-3 0  9996
2 56062  87.8990 284.5426 0002182  97.5400 262.5979 13.16594572122155
ONEWEB-0574             
1 56063U 23043T   25253.11521408 -.00000019  00000+0 -78392-4 0  9995
2 56063  87.9216 299.8563 0002059  90.7749 269.3621 13.21825337121276
ONEWEB-0575             
1 56064U 23043U   25252.80381316 -.00000020  00000+0 -85299-4 0  9999
2 56064  87.8987 284.6546 0002353  88.6359 271.5042 13.16595053122078
ONEWEB-0576             
1 56065U 23043V   25253.08880610  .00000097  00000+0  22036-3 0  9993
2 56065  87.8997 284.5921 0002107  94.5782 265.5589 13.16594461122104
ONEWEB-0577             
1 56066U 23043W   25253.39912642  .00000018  00000+0  13075-4 0  9996
2 56066  87.8994 284.5313 0002471  83.8846 276.2567 13.16594214122171
