[{"OBJECT_NAME":"ONEWEB-0548","OBJECT_ID":"2023-043E","EPOCH":"2025-09-10T09:07:23.277792","MEAN_MOTION":13.16595782,"ECCENTRICITY":0.0002134,"INCLINATION":87.8978,"RA_OF_ASC_NODE":284.5499,"ARG_OF_PERICENTER":80.7738,"MEAN_ANOMALY":279.3634,"EPHEMERIS_TYPE":0,"CLASSIFICATION_TYPE":"U","NORAD_CAT_ID":56050,"ELEMENT_SET_NO":999,"REV_AT_EPOCH":12214,"BSTAR":0.00026159861,"MEAN_MOTION_DOT":1.13e-6,"MEAN_MOTION_DDOT":0},{"OBJECT_NAME":"ONEWEB-0549","OBJECT_ID":"2023-043F","EPOCH":"2025-09-10T09:23:18.521376","MEAN_MOTION":13.21826448,"ECCENTRICITY":0.00017004,"INCLINATION":87.9216,"RA_OF_ASC_NODE":299.8245,"ARG_OF_PERICENTER":100.7628,"MEAN_ANOMALY":259.3697,"EPHEMERIS_TYPE":0,"CLASSIFICATION_TYPE":"U","NORAD_CAT_ID":56051,"ELEMENT_SET_NO":999,"REV_AT_EPOCH":12126,"BSTAR":2.3235263e-5,"MEAN_MOTION_DOT":2.3e-7,"MEAN_MOTION_DDOT":0},{"OBJECT_NAME":"ONEWEB-0550","OBJECT_ID":"2023-043G","EPOCH":"2025-09-09T14:55:05.434752","MEAN_MOTION":13.21824349,"ECCENTRICITY":0.00020593,"INCLINATION":87.9218,"RA_OF_ASC_NODE":299.9724,"ARG_OF_PERICENTER":92.7604,"MEAN_ANOMALY":267.3765,"EPHEMERIS_TYPE":0,"CLASSIFICATION_TYPE":"U","NORAD_CAT_ID":56052,"ELEMENT_SET_NO":999,"REV_AT_EPOCH":12116,"BSTAR":8.932682e-5,"MEAN_MOTION_DOT":5.0e-7,"MEAN_MOTION_DDOT":0},{"OBJECT_NAME":"ONEWEB-0551","OBJECT_ID":"2023-043H","EPOCH":"2025-09-09T17:33:52.762752","MEAN_MOTION":13.15549459,"ECCENTRICITY":0.00016506,"INCLINATION":87.9039,"RA_OF_ASC_NODE":315.1961,"ARG_OF_PERICENTER":97.5817,"MEAN_ANOMALY":262.5501,"EPHEMERIS_TYPE":0,"CLASSIFICATION_TYPE":"U","NORAD_CAT_ID":56053,"ELEMENT_SET_NO":999,"REV_AT_EPOCH":11952,"BSTAR":-0.00043463752,"MEAN_MOTION_DOT":-1.51e-6,"MEAN_MOTION_DDOT":0},{"OBJECT_NAME":"ONEWEB-0552","OBJECT_ID":"2023-043J","EPOCH":"2025-09-09T20:13:02.102016","MEAN_MOTION":13.21826432,"ECCENTRICITY":0.00016737,"INCLINATION":87.9215,"RA_OF_ASC_NODE":299.9368,"ARG_OF_PERICENTER":90.5159,"MEAN_ANOMALY":269.6167,"EPHEMERIS_TYPE":0,"CLASSIFICATION_TYPE":"U","NORAD_CAT_ID":56054,"ELEMENT_SET_NO":999,"REV_AT_EPOCH":12119,"BSTAR":0.0001197845,"MEAN_MOTION_DOT":6.2e-7,"MEAN_MOTION_DDOT":0},{"OBJECT_NAME":"ONEWEB-0553","OBJECT_ID":"2023-043K","EPOCH":"2025-09-10T08:40:01.943040","MEAN_MOTION":13.16594278,"ECCENTRICITY":0.00022962,"INCLINATION":87.8987,"RA_OF_ASC_NODE":284.5469,"ARG_OF_PERICENTER":96.3806,"MEAN_ANOMALY":263.7586,"EPHEMERIS_TYPE":0,"CLASSIFICATION_TYPE":"U","NORAD_CAT_ID":56055,"ELEMENT_SET_NO":999,"REV_AT_EPOCH":12215,"BSTAR":7.9553567e-5,"MEAN_MOTION_DOT":4.3e-7,"MEAN_MOTION_DDOT":0},{"OBJECT_NAME":"ONEWEB-0554","OBJECT_ID":"2023-043L","EPOCH":"2025-09-10T08:21:47.309472","MEAN_MOTION":13.16593613,"ECCENTRICITY":0.00020858,"INCLINATION":87.8979,"RA_OF_ASC_NODE":284.5738,"ARG_OF_PERICENTER":87.0201,"MEAN_ANOMALY":273.1168,"EPHEMERIS_TYPE":0,"CLASSIFICATION_TYPE":"U","NORAD_CAT_ID":56056,"ELEMENT_SET_NO":999,"REV_AT_EPOCH":12213,"BSTAR":-3.0677025e-5,"MEAN_MOTION_DOT":1.0e-8,"MEAN_MOTION_DDOT":0},{"OBJECT_NAME":"ONEWEB-0555","OBJECT_ID":"2023-043M","EPOCH":"2025-09-09T15:02:08.252160","MEAN_MOTION":13.16595758,"ECCENTRICITY":0.00024276,"INCLINATION":87.8989,"RA_OF_ASC_NODE":284.6879,"ARG_OF_PERICENTER":99.4118,"MEAN_ANOMALY":260.7287,"EPHEMERIS_TYPE":0,"CLASSIFICATION_TYPE":"U","NORAD_CAT_ID":56057,"ELEMENT_SET_NO":999,"REV_AT_EPOCH":12204,"BSTAR":4.9948943e-5,"MEAN_MOTION_DOT":3.2e-7,"MEAN_MOTION_DDOT":0},{"OBJECT_NAME":"ONEWEB-0557","OBJECT_ID":"2023-043N","EPOCH":"2025-09-10T02:19:16.802400","MEAN_MOTION":13.16593778,"ECCENTRICITY":0.00031143,"INCLINATION":87.8979,"RA_OF_ASC_NODE":284.6125,"ARG_OF_PERICENTER":81.4875,"MEAN_ANOMALY":278.6609,"EPHEMERIS_TYPE":0,"CLASSIFICATION_TYPE":"U","NORAD_CAT_ID":56058,"ELEMENT_SET_NO":999,"REV_AT_EPOCH":12210,"BSTAR":0.00010493091,"MEAN_MOTION_DOT":5.3e-7,"MEAN_MOTION_DDOT":0},{"OBJECT_NAME":"ONEWEB-0558","OBJECT_ID":"2023-043P","EPOCH":"2025-09-10T01:30:56.439072","MEAN_MOTION":13.21824838,"ECCENTRICITY":0.00015247,"INCLINATION":87.9213,"RA_OF_ASC_NODE":299.888,"ARG_OF_PERICENTER":101.4038,"MEAN_ANOMALY":258.7268,"EPHEMERIS_TYPE":0,"CLASSIFICATION_TYPE":"U","NORAD_CAT_ID":56059,"ELEMENT_SET_NO":999,"REV_AT_EPOCH":12123,"BSTAR":0.00013456699,"MEAN_MOTION_DOT":6.9e-7,"MEAN_MOTION_DDOT":0},{"OBJECT_NAME":"ONEWEB-0559","OBJECT_ID":"2023-043Q","EPOCH":"2025-09-09T16:10:02.824320","MEAN_MOTION":13.21826492,"ECCENTRICITY":0.00015702,"INCLINATION":87.9214,"RA_OF_ASC_NODE":299.9581,"ARG_OF_PERICENTER":88.0212,"MEAN_ANOMALY":272.1102,"EPHEMERIS_TYPE":0,"CLASSIFICATION_TYPE":"U","NORAD_CAT_ID":56060,"ELEMENT_SET_NO":999,"REV_AT_EPOCH":12119,"BSTAR":-9.1978574e-5,"MEAN_MOTION_DOT":-2.5e-7,"MEAN_MOTION_DDOT":0},{"OBJECT_NAME":"ONEWEB-0566","OBJECT_ID":"2023-043R","EPOCH":"2025-09-10T10:10:59.185632","MEAN_MOTION":13.21826864,"ECCENTRICITY":0.00015982,"INCLINATION":87.9214,"RA_OF_ASC_NODE":299.8063,"ARG_OF_PERICENTER":95.892,"MEAN_ANOMALY":264.2396,"EPHEMERIS_TYPE":0,"CLASSIFICATION_TYPE":"U","NORAD_CAT_ID":56061,"ELEMENT_SET_NO":999,"REV_AT_EPOCH":12127,"BSTAR":-0.00015156526,"MEAN_MOTION_DOT":-5.0e-7,"MEAN_MOTION_DDOT":0},{"OBJECT_NAME":"ONEWEB-0568","OBJECT_ID":"2023-043S","EPOCH":"2025-09-10T08:12:40.275648","MEAN_MOTION":13.16594572,"ECCENTRICITY":0.00021822,"INCLINATION":87.899,"RA_OF_ASC_NODE":284.5426,"ARG_OF_PERICENTER":97.54,"MEAN_ANOMALY":262.5979,"EPHEMERIS_TYPE":0,"CLASSIFICATION_TYPE":"U","NORAD_CAT_ID":56062,"ELEMENT_SET_NO":999,"REV_AT_EPOCH":12215,"BSTAR":-0.00013768204,"MEAN_MOTION_DOT":-4.0e-7,"MEAN_MOTION_DDOT":0},{"OBJECT_NAME":"ONEWEB-0574","OBJECT_ID":"2023-043T","EPOCH":"2025-09-10T02:45:54.496512","MEAN_MOTION":13.21825337,"ECCENTRICITY":0.00020598,"INCLINATION":87.9216,"RA_OF_ASC_NODE":299.8563,"ARG_OF_PERICENTER":90.7749,"MEAN_ANOMALY":269.3621,"EPHEMERIS_TYPE":0,"CLASSIFICATION_TYPE":"U","NORAD_CAT_ID":56063,"ELEMENT_SET_NO":999,"REV_AT_EPOCH":12127,"BSTAR":-7.8391882e-5,"MEAN_MOTION_DOT":-1.9e-7,"MEAN_MOTION_DDOT":0},{"OBJECT_NAME":"ONEWEB-0575","OBJECT_ID":"2023-043U","EPOCH":"2025-09-09T19:17:29.457024","MEAN_MOTION":13.16595053,"ECCENTRICITY":0.00023537,"INCLINATION":87.8987,"RA_OF_ASC_NODE":284.6546,"ARG_OF_PERICENTER":88.6359,"MEAN_ANOMALY":271.5042,"EPHEMERIS_TYPE":0,"CLASSIFICATION_TYPE":"U","NORAD_CAT_ID":56064,"ELEMENT_SET_NO":999,"REV_AT_EPOCH":12207,"BSTAR":-8.5299182e-5,"MEAN_MOTION_DOT":-2.0e-7,"MEAN_MOTION_DDOT":0},{"OBJECT_NAME":"ONEWEB-0576","OBJECT_ID":"2023-043V","EPOCH":"2025-09-10T02:07:52.847040","MEAN_MOTION":13.16594461,"ECCENTRICITY":0.00021073,"INCLINATION":87.8997,"RA_OF_ASC_NODE":284.5921,"ARG_OF_PERICENTER":94.5782,"MEAN_ANOMALY":265.5589,"EPHEMERIS_TYPE":0,"CLASSIFICATION_TYPE":"U","NORAD_CAT_ID":56065,"ELEMENT_SET_NO":999,"REV_AT_EPOCH":12210,"BSTAR":0.00022036378,"MEAN_MOTION_DOT":9.7e-7,"MEAN_MOTION_DDOT":0},{"OBJECT_NAME":"ONEWEB-0577","OBJECT_ID":"2023-043W","EPOCH":"2025-09-10T09:34:44.522688","MEAN_MOTION":13.16594214,"ECCENTRICITY":0.00024716,"INCLINATION":87.8994,"RA_OF_ASC_NODE":284.5313,"ARG_OF_PERICENTER":83.8846,"MEAN_ANOMALY":276.2567,"EPHEMERIS_TYPE":0,"CLASSIFICATION_TYPE":"U","NORAD_CAT_ID":56066,"ELEMENT_SET_NO":999,"REV_AT_EPOCH":12217,"BSTAR":1.3074581e-5,"MEAN_MOTION_DOT":1.8e-7,"MEAN_MOTION_DDOT":0}]
